From: horizons@ssd.jpl.nasa.gov (Horizons Ephemeris System)
Subject: [Horizons] SMALL BODY #C(500@10)_T(LINEAR (C/2011 J3)) (1/1)
Date: February 16, 2021 at 11:03:02 PM PST

Automated mail xmit by MAIL_REQUEST, PID= 26718 Tue Feb 16 23:03:02 2021
++++++++++++++++++++++++++++++++ (part 1 of 1)  +++++++++++++++++++++++++++++++


*******************************************************************************
Ephemeris / MAIL_REQUEST Tue Feb 16 23:03:02 2021 Pasadena, USA  / Horizons
*******************************************************************************
Target body name: LINEAR (C/2011 J3)              {source: JPL#11}
Center body name: Sun (10)                        {source: DE431}
Center-site name: BODY CENTER
*******************************************************************************
Start time      : A.D. 2010-Jul-24 00:00:00.0000 TDB
Stop  time      : A.D. 2011-Jul-24 00:00:00.0000 TDB
Step-size       : 10080 minutes
*******************************************************************************
Center geodetic : 0.00000000,0.00000000,0.0000000 {E-lon(deg),Lat(deg),Alt(km)}
Center cylindric: 0.00000000,0.00000000,0.0000000 {E-lon(deg),Dxy(km),Dz(km)}
Center radii    : 696000.0 x 696000.0 x 696000.0 k{Equator, meridian, pole}    
Small perturbers: Yes                             {source: SB431-N16}
Output units    : AU-D
Output type     : GEOMETRIC cartesian states
Output format   : 6 (LT, range, and range-rate)
Reference frame : Ecliptic of J2000.0
*******************************************************************************
Initial IAU76/J2000 heliocentric ecliptic osculating elements (au, days, deg.):
 EPOCH=  2455711.5 ! 2011-May-30.0000000 (TDB)    RMSW= n.a.                  
  EC= .9258284402393274   QR= 1.450992159551614   TP= 2455585.8877876475      
  OM= 21.51231515705576   W= 27.84491744751259    IN= 114.7123652374121       
 Equivalent ICRF heliocentric equatorial cartesian coordinates (au, au/d):
  X=-4.712992371347413E-02  Y=-1.685267639578006E+00  Z= 1.404392400561413E+00
 VX=-1.254888298205976E-02 VY=-9.582327553247942E-03 VZ= 2.301316138999475E-03
Comet physical (GM= km^3/s^2; RAD= km):                                        
  GM= n.a.                RAD= n.a.                                           
  M1=  13.1     M2=  16.5     k1=  14.    k2=  5.      PHCOF=  .030           
*******************************************************************************
           JDTDB,            Calendar Date (TDB),                     LT,                     RG,                     RR,
**************************************************************************************************************************
$$SOE
2455401.500000000, A.D. 2010-Jul-24 00:00:00.0000,  1.586152977213608E-02,  2.746338746048030E+00, -9.525725566144127E-03,
2455408.500000000, A.D. 2010-Jul-31 00:00:00.0000,  1.547656276992352E-02,  2.679683775858232E+00, -9.517295212756736E-03,
2455415.500000000, A.D. 2010-Aug-07 00:00:00.0000,  1.509209652997211E-02,  2.613115509966198E+00, -9.500760861765727E-03,
2455422.500000000, A.D. 2010-Aug-14 00:00:00.0000,  1.470848310114486E-02,  2.546694903742998E+00, -9.474886146297736E-03,
2455429.500000000, A.D. 2010-Aug-21 00:00:00.0000,  1.432612814014206E-02,  2.480492194468995E+00, -9.438251377917449E-03,
2455436.500000000, A.D. 2010-Aug-28 00:00:00.0000,  1.394549883508693E-02,  2.414588273260174E+00, -9.389227793238426E-03,
2455443.500000000, A.D. 2010-Sep-04 00:00:00.0000,  1.356713291910549E-02,  2.349076245721115E+00, -9.325949438506561E-03,
2455450.500000000, A.D. 2010-Sep-11 00:00:00.0000,  1.319164886144058E-02,  2.284063196481690E+00, -9.246283119714671E-03,
2455457.500000000, A.D. 2010-Sep-18 00:00:00.0000,  1.281975730289083E-02,  2.219672169181942E+00, -9.147797016084720E-03,
2455464.500000000, A.D. 2010-Sep-25 00:00:00.0000,  1.245227376420131E-02,  2.156044366861717E+00, -9.027729634702301E-03,
2455471.500000000, A.D. 2010-Oct-02 00:00:00.0000,  1.209013251649466E-02,  2.093341553551357E+00, -8.882964436332642E-03,
2455478.500000000, A.D. 2010-Oct-09 00:00:00.0000,  1.173440130115504E-02,  2.031748602940617E+00, -8.710013022440817E-03,
2455485.500000000, A.D. 2010-Oct-16 00:00:00.0000,  1.138629654721179E-02,  1.971476133186957E+00, -8.505008531339854E-03,
2455492.500000000, A.D. 2010-Oct-23 00:00:00.0000,  1.104719846046366E-02,  1.912763119516414E+00, -8.263720794544615E-03,
2455499.500000000, A.D. 2010-Oct-30 00:00:00.0000,  1.071866485931374E-02,  1.855879289824166E+00, -7.981605013673137E-03,
2455506.500000000, A.D. 2010-Nov-06 00:00:00.0000,  1.040244216050816E-02,  1.801127026796216E+00, -7.653896456924627E-03,
2455513.500000000, A.D. 2010-Nov-13 00:00:00.0000,  1.010047134617441E-02,  1.748842401070058E+00, -7.275766808825640E-03,
2455520.500000000, A.D. 2010-Nov-20 00:00:00.0000,  9.814886084855224E-03,  1.699394845901770E+00, -6.842558559426041E-03,
2455527.500000000, A.D. 2010-Nov-27 00:00:00.0000,  9.547999568752746E-03,  1.653184878105500E+00, -6.350110442317452E-03,
2455534.500000000, A.D. 2010-Dec-04 00:00:00.0000,  9.302276260430797E-03,  1.610639206146596E+00, -5.795178168719770E-03,
2455541.500000000, A.D. 2010-Dec-11 00:00:00.0000,  9.080284861666375E-03,  1.572202586950690E+00, -5.175938943953629E-03,
2455548.500000000, A.D. 2010-Dec-18 00:00:00.0000,  8.884629744644278E-03,  1.538325953583063E+00, -4.492544118999072E-03,
2455555.500000000, A.D. 2010-Dec-25 00:00:00.0000,  8.717860099269246E-03,  1.509450684593390E+00, -3.747655837955723E-03,
2455562.500000000, A.D. 2011-Jan-01 00:00:00.0000,  8.582359250236616E-03,  1.485989439860588E+00, -2.946872685241464E-03,
2455569.500000000, A.D. 2011-Jan-08 00:00:00.0000,  8.480221038366407E-03,  1.468304756684317E+00, -2.098923796846461E-03,
2455576.500000000, A.D. 2011-Jan-15 00:00:00.0000,  8.413124834700308E-03,  1.456687409146714E+00, -1.215528904377960E-03,
2455583.500000000, A.D. 2011-Jan-22 00:00:00.0000,  8.382223975036667E-03,  1.451337091150935E+00, -3.108705472515801E-04,
2455590.500000000, A.D. 2011-Jan-29 00:00:00.0000,  8.388063187911257E-03,  1.452348119519212E+00,  5.993013401073164E-04,
2455597.500000000, A.D. 2011-Feb-05 00:00:00.0000,  8.430537899030916E-03,  1.459702387773970E+00,  1.498819652881990E-03,
2455604.500000000, A.D. 2011-Feb-12 00:00:00.0000,  8.508902154470158E-03,  1.473270737996788E+00,  2.372320776093992E-03,
2455611.500000000, A.D. 2011-Feb-19 00:00:00.0000,  8.621823835987171E-03,  1.492822521064009E+00,  3.206330856998640E-03,
2455618.500000000, A.D. 2011-Feb-26 00:00:00.0000,  8.767478160292509E-03,  1.518041785543271E+00,  3.990051696600343E-03,
2455625.500000000, A.D. 2011-Mar-05 00:00:00.0000,  8.943665293318220E-03,  1.548547641972935E+00,  4.715761535569953E-03,
2455632.500000000, A.D. 2011-Mar-12 00:00:00.0000,  9.147936352673624E-03,  1.583916079511005E+00,  5.378837134570813E-03,
2455639.500000000, A.D. 2011-Mar-19 00:00:00.0000,  9.377713851622270E-03,  1.623700820163273E+00,  5.977473341452506E-03,
2455646.500000000, A.D. 2011-Mar-26 00:00:00.0000,  9.630396527143288E-03,  1.667451469199505E+00,  6.512210561230447E-03,
2455653.500000000, A.D. 2011-Apr-02 00:00:00.0000,  9.903443125750255E-03,  1.714728022218259E+00,  6.985383934849111E-03,
2455660.500000000, A.D. 2011-Apr-09 00:00:00.0000,  1.019443386914458E-02,  1.765111507594872E+00,  7.400581231235492E-03,
2455667.500000000, A.D. 2011-Apr-16 00:00:00.0000,  1.050111111148638E-02,  1.818211026069693E+00,  7.762162256395764E-03,
2455674.500000000, A.D. 2011-Apr-23 00:00:00.0000,  1.082140232923500E-02,  1.873667731315563E+00,  8.074868155695641E-03,
2455681.500000000, A.D. 2011-Apr-30 00:00:00.0000,  1.115342926319372E-02,  1.931156412833799E+00,  8.343526556517225E-03,
2455688.500000000, A.D. 2011-May-07 00:00:00.0000,  1.149550695021504E-02,  1.990385328299160E+00,  8.572844152247723E-03,
2455695.500000000, A.D. 2011-May-14 00:00:00.0000,  1.184613589344630E-02,  2.051094847879893E+00,  8.767271989831052E-03,
2455702.500000000, A.D. 2011-May-21 00:00:00.0000,  1.220398998131111E-02,  2.113055362474221E+00,  8.930927205536959E-03,
2455709.500000000, A.D. 2011-May-28 00:00:00.0000,  1.256790212587152E-02,  2.176064797069829E+00,  9.067556134611252E-03,
2455716.500000000, A.D. 2011-Jun-04 00:00:00.0000,  1.293684902753982E-02,  2.239945972835486E+00,  9.180526074329181E-03,
2455723.500000000, A.D. 2011-Jun-11 00:00:00.0000,  1.330993600890878E-02,  2.304543981180156E+00,  9.272835417928454E-03,
2455730.500000000, A.D. 2011-Jun-18 00:00:00.0000,  1.368638249720679E-02,  2.369723670118022E+00,  9.347134724777417E-03,
2455737.500000000, A.D. 2011-Jun-25 00:00:00.0000,  1.406550852183143E-02,  2.435367306388901E+00,  9.405755500899659E-03,
2455744.500000000, A.D. 2011-Jul-02 00:00:00.0000,  1.444672246217747E-02,  2.501372454060415E+00,  9.450742110387272E-03,
2455751.500000000, A.D. 2011-Jul-09 00:00:00.0000,  1.482951005434079E-02,  2.567650071097790E+00,  9.483881907126618E-03,
2455758.500000000, A.D. 2011-Jul-16 00:00:00.0000,  1.521342458824350E-02,  2.634122812048676E+00,  9.506734148087738E-03,
2455765.500000000, A.D. 2011-Jul-23 00:00:00.0000,  1.559807824716296E-02,  2.700723528529090E+00,  9.520657413489911E-03,
$$EOE
**************************************************************************************************************************
Coordinate system description:

 Ecliptic at the standard reference epoch

   Reference epoch: J2000.0
   X-Y plane: adopted Earth orbital plane at the reference epoch
              Note: obliquity of 84381.448 arcseconds (IAU76) wrt ICRF equator
   X-axis   : ICRF
   Z-axis   : perpendicular to the X-Y plane in the directional (+ or -) sense
              of Earth's north pole at the reference epoch.

 Symbol meaning [1 au= 149597870.700 km, 1 day= 86400.0 s]:

   JDTDB    Julian Day Number, Barycentric Dynamical Time
     LT     One-way down-leg Newtonian light-time (day)
     RG     Range; distance from coordinate center (au)
     RR     Range-rate; radial velocity wrt coord. center (au/day)

Geometric states/elements have no aberrations applied.


Computations by ...
    Solar System Dynamics Group, Horizons On-Line Ephemeris System
    4800 Oak Grove Drive, Jet Propulsion Laboratory
    Pasadena, CA  91109   USA
    Information  : https://ssd.jpl.nasa.gov/
    Documentation: https://ssd.jpl.nasa.gov/?horizons_doc
    Connect      : https://ssd.jpl.nasa.gov/?horizons (browser)
                   telnet ssd.jpl.nasa.gov 6775       (command-line)
                   e-mail command interface available
                   Script and CGI interfaces available
    Author       : Jon.D.Giorgini@jpl.nasa.gov
*******************************************************************************
